[
    {
        "Altitude(m)": 607895.8240523787,
        "Argument of Periapsis(deg)": 0.0,
        "Eccentricity": 0.0,
        "Inclination(deg)": 60.0,
        "Latitude(deg)": 40.998357652205506,
        "Longitude(deg)": -179.91125988057513,
        "Mean Anomaly(deg)": 130.9091,
        "RAAN(deg)": 130.0,
        "Satellite Name": "Test1 580",
        "Satellite Number": 580,
        "Semi-Major Axis(m)": 6980739.136638005,
        "Time(s)": 0
    },
    {
        "Altitude(m)": 607795.1365296069,
        "Argument of Periapsis(deg)": 0.00010418945913296404,
        "Eccentricity": 0.0,
        "Inclination(deg)": 60.0,
        "Latitude(deg)": 40.53068096285571,
        "Longitude(deg)": -179.4146674636812,
        "Mean Anomaly(deg)": 131.52920614546187,
        "RAAN(deg)": 129.99957995086024,
        "Satellite Name": "Test1 580",
        "Satellite Number": 580,
        "Semi-Major Axis(m)": 6980739.136638005,
        "Time(s)": 10
    }
]